QIANFAN-33              
1 61566U 24185Q   25223.23052264  .00000254  00000+0  17402-3 0  9999
2 61566  88.9773  92.5984 0007260   9.2227 350.9082 13.96410234 51929
QIANFAN-34              
1 61567U 24185R   25223.27403817  .00000380  00000+0  23984-3 0  9990
2 61567  88.9749  92.3199 0006776  23.0468 337.1015 14.02162485 52059
QIANFAN-35              
1 61568U 24185S   25223.56272489  .00000625  00000+0  24781-3 0  9990
2 61568  88.9772  91.3578 0006289 351.6451   8.4637 14.27668119 52608
QIANFAN-36              
1 61569U 24185T   25223.54587293  .00000075  00000+0  90882-4 0  9996
2 61569  88.9762  93.8965 0007750  49.4452 310.7375 13.55546011 51289
QIANFAN-37              
1 62238U 24232B   25223.23012530  .00000059  00000+0  73024-4 0  9997
2 62238  88.9924  53.8157 0002646  90.8839 269.2615 13.50965842 82494
QIANFAN-38              
1 62239U 24232C   25223.55124633  .00000043  00000+0  47278-4 0  9996
2 62239  88.9931  53.6903 0014282 183.6647 176.4402 13.50963560 82596
QIANFAN-39              
1 62240U 24232D   25223.56353141  .00000145  00000+0  55405-4 0  9991
2 62240  88.9930  51.4107 0018186 118.2561 242.0470 14.25231848 83849
QIANFAN-40              
1 62241U 24232E   25223.51003235  .00000033  00000+0  32868-4 0  9997
2 62241  88.9958  53.2444 0013045 191.3558 168.7301 13.50960223 82952
